STARLINK-2099           
1 47379U 21005AG  26157.71735500  .00001327  00000+0  54533-4 0  9993
2 47379  53.1600 319.4160 0001723  88.5593 271.5606 15.31706952297365
STARLINK-2100           
1 47380U 21005AH  26158.00004630  .00134918  00000+0  77703-3 0  9997
2 47380  53.0551 321.1551 0005928 291.4663  54.9316 15.77790501  5944
STARLINK-2101           
1 47381U 21005AJ  26157.78849795  .00001966  00000+0  75084-4 0  9998
2 47381  53.1597 342.9617 0001019  77.9984 282.1132 15.31708484297033
STARLINK-2102           
1 47382U 21005AK  26157.77637511  .00001975  00000+0  75362-4 0  9998
2 47382  53.1594 332.1424 0001014  89.6181 270.4937 15.31707495297182
STARLINK-2103           
1 47383U 21005AL  26157.73993558  .00060169  00000+0  17924-2 0  9999
2 47383  53.1603 319.7738 0001296 298.7181  61.3691 15.34139466297362
STARLINK-2104           
1 47384U 21005AM  26157.24106803  .00000990  00000+0  45563-4 0  9993
2 47384  53.1622 345.3892 0001365 107.7685 252.3465 15.30197980296940
STARLINK-2105           
1 47385U 21005AN  26157.24247415  .00001373  00000+0  55989-4 0  9998
2 47385  53.1608 345.1777 0001244  74.9212 285.1927 15.31705589296940
STARLINK-2106           
1 47386U 21005AP  26157.81204567 -.00000844  00000+0 -16374-4 0  9992
2 47386  53.1592 342.7287 0001403 106.3686 253.7469 15.30187519297033
STARLINK-2109           
1 47388U 21005AR  26157.32430981 -.00025596  00000+0 -81390-3 0  9991
2 47388  53.1567  13.9883 0000705  65.0487 295.0588 15.31777098296544
STARLINK-2110           
1 47389U 21005AS  26157.78773593  .00001791  00000+0  69460-4 0  9995
2 47389  53.1585 342.2832 0000924  81.8046 278.3060 15.31707111297041
STARLINK-2111           
1 47390U 21005AT  26157.30102642  .00002271  00000+0  84889-4 0  9992
2 47390  53.1593  14.1464 0001401  77.6910 282.4248 15.31712905296547
STARLINK-2112           
1 47391U 21005AU  26157.78847713  .00026284  00000+0  15420-2 0  9993
2 47391  53.0670 349.9261 0001451 142.8974 217.2118 15.11598109296916
STARLINK-2113           
1 47392U 21005AV  26158.00004630  .00184687  00000+0  83939-3 0  9996
2 47392  53.0435 295.6281 0001160  50.1251 258.0729 15.82830316  5995
STARLINK-2114           
1 47393U 21005AW  26157.79814992  .00879035  41113-3  12144-2 0  9993
2 47393  53.0265 256.9234 0012858 326.9216  33.1010 16.05353916298212
STARLINK-2119           
1 47397U 21005BA  26157.93599687  .00046769  00000+0  14269-2 0  9990
2 47397  53.1589   7.4306 0001204 214.0363 146.0562 15.33497122296704
STARLINK-2121           
1 47399U 21005BC  26157.79239245  .00002593  00000+0  95236-4 0  9999
2 47399  53.1586 342.2240 0000887  87.1760 272.9343 15.31713445297047
STARLINK-2122           
1 47400U 21005BD  26157.72201379 -.00000510  00000+0 -46659-5 0  9997
2 47400  53.1609 319.3794 0000887  77.4938 282.6163 15.31704002297366
STARLINK-2123           
1 47401U 21005BE  26157.77378412  .00000287  00000+0  21015-4 0  9993
2 47401  53.1607 342.5684 0000910  91.0550 269.0556 15.31702782297032
STARLINK-2128           
1 47404U 21005BH  26158.00004630  .00087542  00000+0  39176-3 0  9996
2 47404  53.0400 293.8671 0002591 300.9137 353.1192 15.83486944  6001
STARLINK-2130           
1 47405U 21005BJ  26157.85013834  .00001779  00000+0  69076-4 0  9996
2 47405  53.1593   7.6865 0001303  68.1923 291.9217 15.31702192296689
STARLINK-2134           
1 47407U 21005BL  26157.93282038  .00010900  00000+0  36207-3 0  9996
2 47407  53.1584 343.6697 0001023  85.5693 274.5425 15.31736740297026
STARLINK-2135           
1 47408U 21005BM  26157.80643204  .00003467  00000+0  12338-3 0  9998
2 47408  53.1589 342.6465 0000962  95.6505 264.4606 15.31714254297035
ASTROCAST-0101          
1 47430U 21006T   26157.42327530  .00465406  00000+0  20221-2 0  9997
2 47430  97.2253 225.7410 0007940 237.9203 122.1297 15.83613317298253
CUBEL                   
1 47448U 21006AM  26157.64263631  .00010233  00000+0  25125-3 0  9994
2 47448  97.2334 208.3285 0006122 195.5847 164.5212 15.40849674298137
CELESTIS-17 & SHERPA-FX1
1 47486U 21006CB  26157.63044256  .00006467  00000+0  21140-3 0  9992
2 47486  97.2256 198.9500 0005269 223.4610 136.6217 15.32046290297684
HAWK-2C                 
1 47502U 21006CT  26157.91494911  .00007351  00000+0  22194-3 0  9992
2 47502  97.2281 202.4303 0005552 225.7223 134.3566 15.34538912297921
ION SCV-002             
1 47504U 21006CV  26157.73406664  .00016286  00000+0  36077-3 0  9994
2 47504  97.1125 159.8813 0012427 146.3908 213.8131 15.43763559298410
HAWK-2A                 
1 47505U 21006CW  26157.65671076  .00007467  00000+0  22534-3 0  9991
2 47505  97.2322 202.8491 0005001 231.0748 129.0050 15.34550344297880
HAWK-2B                 
1 47508U 21006CZ  26157.91361252  .00008538  00000+0  25666-3 0  9994
2 47508  97.2194 201.4494 0005560 226.7594 133.3186 15.34626064297924
GHGSAT-C2               
1 47509U 21006DA  26157.67271715  .00007266  00000+0  19859-3 0  9996
2 47509  97.2152 205.1151 0004773 185.6343 174.4849 15.37670593298236
