OBJECT_NAME,OBJECT_ID,EPOCH,MEAN_MOTION,ECCENTRICITY,INCLINATION,RA_OF_ASC_NODE,ARG_OF_PERICENTER,MEAN_ANOMALY,EPHEMERIS_TYPE,CLASSIFICATION_TYPE,NORAD_CAT_ID,ELEMENT_SET_NO,REV_AT_EPOCH,BSTAR,MEAN_MOTION_DOT,MEAN_MOTION_DDOT
STARLINK-2099,2021-005AG,2026-06-06T17:12:59.472000,15.31706952,.00017234,53.1600,319.4160,88.5593,271.5606,0,U,47379,999,29736,.54533381E-4,.1327E-4,0
STARLINK-2100,2021-005AH,2026-06-07T00:00:04.000320,15.77790501,.00059287,53.0551,321.1551,291.4663,54.9316,0,U,47380,999,594,.77702505E-3,.134918E-2,0
STARLINK-2101,2021-005AJ,2026-06-06T18:55:26.222880,15.31708484,.00010194,53.1597,342.9617,77.9984,282.1132,0,U,47381,999,29703,.75084218E-4,.1966E-4,0
STARLINK-2102,2021-005AK,2026-06-06T18:37:58.809504,15.31707495,.00010144,53.1594,332.1424,89.6181,270.4937,0,U,47382,999,29718,.75361559E-4,.1975E-4,0
STARLINK-2103,2021-005AL,2026-06-06T17:45:30.434112,15.34139466,.00012963,53.1603,319.7738,298.7181,61.3691,0,U,47383,999,29736,.17924222E-2,.60169E-3,0
STARLINK-2104,2021-005AM,2026-06-06T05:47:08.277792,15.30197980,.00013657,53.1622,345.3892,107.7685,252.3465,0,U,47384,999,29694,.45563035E-4,.99E-5,0
STARLINK-2105,2021-005AN,2026-06-06T05:49:09.766560,15.31705589,.00012449,53.1608,345.1777,74.9212,285.1927,0,U,47385,999,29694,.55988646E-4,.1373E-4,0
STARLINK-2106,2021-005AP,2026-06-06T19:29:20.745888,15.30187519,.00014033,53.1592,342.7287,106.3686,253.7469,0,U,47386,999,29703,-.16374369E-4,-.844E-5,0
STARLINK-2109,2021-005AR,2026-06-06T07:47:00.367584,15.31777098,.00007058,53.1567,13.9883,65.0487,295.0588,0,U,47388,999,29654,-.81390416E-3,-.25596E-3,0
STARLINK-2110,2021-005AS,2026-06-06T18:54:20.384352,15.31707111,.00009242,53.1585,342.2832,81.8046,278.3060,0,U,47389,999,29704,.69460424E-4,.1791E-4,0
STARLINK-2111,2021-005AT,2026-06-06T07:13:28.682688,15.31712905,.00014014,53.1593,14.1464,77.6910,282.4248,0,U,47390,999,29654,.84889022E-4,.2271E-4,0
STARLINK-2112,2021-005AU,2026-06-06T18:55:24.424032,15.11598109,.00014512,53.0670,349.9261,142.8974,217.2118,0,U,47391,999,29691,.15419687E-2,.26284E-3,0
STARLINK-2113,2021-005AV,2026-06-07T00:00:04.000320,15.82830316,.00011603,53.0435,295.6281,50.1251,258.0729,0,U,47392,999,599,.83938709E-3,.184687E-2,0
STARLINK-2114,2021-005AW,2026-06-06T19:09:20.153088,16.05353916,.00128587,53.0265,256.9234,326.9216,33.1010,0,U,47393,999,29821,.12143724E-2,.879035E-2,.41112504E-3
STARLINK-2119,2021-005BA,2026-06-06T22:27:50.129568,15.33497122,.00012044,53.1589,7.4306,214.0363,146.0562,0,U,47397,999,29670,.14268523E-2,.46769E-3,0
STARLINK-2121,2021-005BC,2026-06-06T19:01:02.707680,15.31713445,.00008872,53.1586,342.2240,87.1760,272.9343,0,U,47399,999,29704,.95235915E-4,.2593E-4,0
STARLINK-2122,2021-005BD,2026-06-06T17:19:41.991456,15.31704002,.00008873,53.1609,319.3794,77.4938,282.6163,0,U,47400,999,29736,-.4665895E-5,-.51E-5,0
STARLINK-2123,2021-005BE,2026-06-06T18:34:14.947968,15.31702782,.000091,53.1607,342.5684,91.0550,269.0556,0,U,47401,999,29703,.21014639E-4,.287E-5,0
STARLINK-2128,2021-005BH,2026-06-07T00:00:04.000320,15.83486944,.00025912,53.0400,293.8671,300.9137,353.1192,0,U,47404,999,600,.39175756E-3,.87542E-3,0
STARLINK-2130,2021-005BJ,2026-06-06T20:24:11.952576,15.31702192,.00013039,53.1593,7.6865,68.1923,291.9217,0,U,47405,999,29668,.69075792E-4,.1779E-4,0
STARLINK-2134,2021-005BL,2026-06-06T22:23:15.680832,15.31736740,.00010239,53.1584,343.6697,85.5693,274.5425,0,U,47407,999,29702,.36206983E-3,.109E-3,0
STARLINK-2135,2021-005BM,2026-06-06T19:21:15.728256,15.31714254,.00009626,53.1589,342.6465,95.6505,264.4606,0,U,47408,999,29703,.12337765E-3,.3467E-4,0
ASTROCAST-0101,2021-006T,2026-06-06T10:09:30.985920,15.83613317,.00079402,97.2253,225.7410,237.9203,122.1297,0,U,47430,999,29825,.20221242E-2,.465406E-2,0
CUBEL,2021-006AM,2026-06-06T15:25:23.777184,15.40849674,.00061229,97.2334,208.3285,195.5847,164.5212,0,U,47448,999,29813,.25125414E-3,.10233E-3,0
CELESTIS-17 & SHERPA-FX1,2021-006CB,2026-06-06T15:07:50.237184,15.32046290,.00052697,97.2256,198.9500,223.4610,136.6217,0,U,47486,999,29768,.21140047E-3,.6467E-4,0
HAWK-2C,2021-006CT,2026-06-06T21:57:31.603104,15.34538912,.00055522,97.2281,202.4303,225.7223,134.3566,0,U,47502,999,29792,.22193663E-3,.7351E-4,0
ION SCV-002,2021-006CV,2026-06-06T17:37:03.357696,15.43763559,.00124275,97.1125,159.8813,146.3908,213.8131,0,U,47504,999,29841,.36077062E-3,.16286E-3,0
HAWK-2A,2021-006CW,2026-06-06T15:45:39.809664,15.34550344,.00050013,97.2322,202.8491,231.0748,129.0050,0,U,47505,999,29788,.22534164E-3,.7467E-4,0
HAWK-2B,2021-006CZ,2026-06-06T21:55:36.121728,15.34626064,.00055608,97.2194,201.4494,226.7594,133.3186,0,U,47508,999,29792,.25665683E-3,.8538E-4,0
GHGSAT-C2,2021-006DA,2026-06-06T16:08:42.761760,15.37670593,.00047733,97.2152,205.1151,185.6343,174.4849,0,U,47509,999,29823,.19858533E-3,.7266E-4,0
